{"type":"FeatureCollection","features":[{"type":"Feature","properties":{},"geometry":{"coordinates":[[-97.822,37.751],[-97.822,37.751],[-97.822,37.751],[-97.822,37.751],[-97.822,37.751],[-73.9901,40.694],[-83.5754,34.1149],[-77.539,39.018],[-77.539,39.018]],"type":"LineString"}},{"type":"Feature","properties":{"ip":"162.243.189.149","city":"United States"},"geometry":{"coordinates":[-97.822,37.751],"type":"Point"},"id":9},{"type":"Feature","properties":{"ip":"143.244.192.166","city":"United States"},"geometry":{"coordinates":[-97.822,37.751],"type":"Point"},"id":8},{"type":"Feature","properties":{"ip":"143.244.225.214","city":"United States"},"geometry":{"coordinates":[-97.822,37.751],"type":"Point"},"id":7},{"type":"Feature","properties":{"ip":"143.244.225.141","city":"United States"},"geometry":{"coordinates":[-97.822,37.751],"type":"Point"},"id":6},{"type":"Feature","properties":{"ip":"206.82.104.8","city":"United States"},"geometry":{"coordinates":[-97.822,37.751],"type":"Point"},"id":5},{"type":"Feature","properties":{"ip":"184.104.189.84","city":"Brooklyn, New York"},"geometry":{"coordinates":[-73.9901,40.694],"type":"Point"},"id":4},{"type":"Feature","properties":{"ip":"216.66.39.117","city":"Jefferson, Georgia"},"geometry":{"coordinates":[-83.5754,34.1149],"type":"Point"},"id":3},{"type":"Feature","properties":{"ip":"208.113.156.195","city":"Ashburn, Virginia"},"geometry":{"coordinates":[-77.539,39.018],"type":"Point"},"id":2},{"type":"Feature","properties":{"ip":"173.236.251.108","city":"Ashburn, Virginia"},"geometry":{"coordinates":[-77.539,39.018],"type":"Point"},"id":1}]}